EYESAT-1 (AO-27)        
1 22825U 93061C   17162.87495304 -.00000009  00000-0  14229-4 0  9997
2 22825  98.8117 128.3908 0008304 355.1295   4.9804 14.29997918236376
CUTE-1 (CO-55)          
1 27844U 03031E   17162.93884355  .00000041  00000-0  38486-4 0  9992
2 27844  98.6890 172.0219 0009896  10.3574 349.7805 14.22041073723531
CUBESAT XI-IV (CO-57)   
1 27848U 03031J   17162.93719414  .00000033  00000-0  34840-4 0  9990
2 27848  98.6983 172.2770 0010008  19.4206 340.7350 14.21655285723420
CUBESAT XI 5            
1 28895U 05043F   17162.90860604  .00000129  00000-0  33491-4 0  9990
2 28895  97.8642 325.4440 0017475 155.9915 204.2107 14.63398936619487
CUTE-1.7+APD II (CO-65) 
1 32785U 08021C   17162.79539485  .00000222  00000-0  29878-4 0  9997
2 32785  97.5666 187.3149 0013087 179.3730 180.7505 14.87886997494020
COMPASS-1               
1 32787U 08021E   17162.65224406  .00000483  00000-0  52136-4 0  9990
2 32787  97.5600 196.0143 0013417 150.5726 209.6252 14.92594170494625
AAUSAT-II               
1 32788U 08021F   17162.87524436  .00000195  00000-0  23464-4 0  9993
2 32788  97.5590 199.0608 0012991 142.4557 217.7573 14.93866536494783
DELFI-C3 (DO-64)        
1 32789U 08021G   17162.90493159  .00001841  00000-0  13424-3 0  9998
2 32789  97.5597 221.2476 0014343 117.5714 242.6971 15.04859339495970
CANX-2                  
1 32790U 08021H   17162.63961338  .00000185  00000-0  25971-4 0  9990
2 32790  97.5643 185.5450 0013722 181.8945 178.2222 14.87614157493932
SEEDS II (CO-66)        
1 32791U 08021J   17162.67086587  .00000290  00000-0  35308-4 0  9991
2 32791  97.5635 191.5435 0013868 164.9111 195.2524 14.90219029494244
SWISSCUBE               
1 35932U 09051B   17162.91321027  .00000121  00000-0  38445-4 0  9991
2 35932  98.4951 301.3227 0006398 266.0180  94.0285 14.56013642409516
BEESAT                  
1 35933U 09051C   17162.89997652  .00000118  00000-0  37629-4 0  9991
2 35933  98.4987 302.6173 0004601 282.8331  77.2351 14.56133314409571
ITUPSAT 1               
1 35935U 09051E   17162.88514200  .00000093  00000-0  32445-4 0  9999
2 35935  98.5100 302.8556 0006894 274.3632  85.6776 14.55326952409434
TISAT 1                 
1 36799U 10035E   17162.90725614  .00000308  00000-0  37709-4 0  9995
2 36799  98.0611 285.5265 0012004 351.2384   8.8621 14.90388696374796
M-CUBED & EXP-1 PRIME   
1 37855U 11061F   17162.87004366  .00001252  00000-0  73288-4 0  9990
2 37855 101.7165  31.6037 0180947  97.2006 264.9814 15.03019403305529
HORYU 2                 
1 38340U 12025D   17162.93283586  .00000195  00000-0  36862-4 0  9993
2 38340  98.3760 166.6690 0010623 313.9190  46.1140 14.75337132262108
STRAND-1                
1 39090U 13009E   17162.79251212  .00000032  00000-0  26789-4 0  9991
2 39090  98.5545   8.2818 0008472 322.8465  37.2133 14.34968789224687
BRITE-AUSTRIA           
1 39091U 13009F   17162.80694784  .00000010  00000-0  18838-4 0  9991
2 39091  98.5508   7.6852 0009907 330.0531  30.0086 14.35029954224723
UNIBRITE                
1 39092U 13009G   17162.80583550  .00000007  00000-0  17865-4 0  9995
2 39092  98.5517   7.3753 0008653 323.7184  36.3413 14.34904363224707
AIST-2                  
1 39133U 13015D   17162.85019499  .00000063  00000-0  17185-4 0  9996
2 39133  64.8738 302.4222 0037185 283.2522  76.4451 15.04283536227498
SOMP                    
1 39134U 13015E   17162.61641115  .00000899  00000-0  53626-4 0  9994
2 39134  64.8661 244.4436 0035489 269.7591  89.9468 15.17782094228255
BEESAT-2                
1 39136U 13015G   17162.69742285  .00000771  00000-0  50996-4 0  9990
2 39136  64.8702 254.7928 0032270 284.6983  75.0566 15.15070419228051
NEE-01 PEGASUS          
1 39151U 13018B   17162.89534488  .00000156  00000-0  27759-4 0  9994
2 39151  97.9835 254.4478 0018487  69.5669 290.7526 14.79715980222744
CUBEBUG-1 (CAPITAN BETO)
1 39153U 13018D   17162.88698442  .00000167  00000-0  28922-4 0  9991
2 39153  97.9856 255.2112 0018393  68.0618 292.2546 14.80178350222809
ESTCUBE 1               
1 39161U 13021C   17162.76036757  .00000170  00000-0  35128-4 0  9996
2 39161  98.0283 248.8341 0010393 152.5989 207.5765 14.71895322219957
POPACS 1                
1 39268U 13055D   17162.55551984  .00002352  00000-0  68224-4 0  9999
2 39268  81.0040  14.0697 0651155 236.1209 117.6399 14.30782137189916
POPACS 2                
1 39269U 13055E   17161.93165588  .00001088  00000-0  32380-4 0  9991
2 39269  81.0173  29.4053 0700187 276.4212  75.7749 14.19851585189195
POPACS 3                
1 39270U 13055F   17162.94811584  .00001060  00000-0  33821-4 0  9990
2 39270  81.0190  36.3833 0724608 298.0253  54.9442 14.13147196169331
FIREFLY                 
1 39404U 13064AA  17162.87331976  .00040333  00000-0  25431-3 0  9996
2 39404  40.4995 336.8200 0007711   2.7285 357.3584 15.75780031196823
ZACUBE-1 (TSHEPISOSAT)  
1 39417U 13066B   17162.82156787  .00000213  00000-0  33710-4 0  9995
2 39417  97.6297 205.3247 0057807 288.0094  71.4825 14.80705871191983
WNISAT-1                
1 39423U 13066H   17162.89930643  .00000053  00000-0  19516-4 0  9990
2 39423  97.6817 151.7104 0177202  94.6002 267.5460 14.52842199188462
TRITON-1                
1 39427U 13066M   17162.93992885  .00000185  00000-0  37681-4 0  9994
2 39427  97.6374 178.6476 0114533   6.4169 353.8472 14.67455256190080
GOMX 1                  
1 39430U 13066Q   17162.95964529  .00000200  00000-0  44903-4 0  9997
2 39430  97.6645 162.3939 0153353  59.8613 301.7685 14.58865094188987
BRITE-PL                
1 39431U 13066R   17162.93191981  .00000050  00000-0  20368-4 0  9992
2 39431  97.7057 141.1562 0203739 131.7069 230.1757 14.46841774187498
HUMSAT-D                
1 39433U 13066T   17162.75298694  .00000269  00000-0  32257-4 0  9995
2 39433  97.6526 226.0355 0029951 233.2737 126.5730 14.91423776192027
EAGLE 2                 
1 39436U 13066W   17162.85456478  .00020454  00000-0  56820-3 0  9994
2 39436  97.7090 268.5493 0012226 104.7388 255.5211 15.36841655194683
CUBEBUG-2 (LO-74)       
1 39440U 13066AA  17162.68371943  .00000179  00000-0  32368-4 0  9997
2 39440  97.6289 194.4133 0079697 319.1348  40.3903 14.75447365190088
NEE-02 KRYSAOR          
1 39441U 13066AB  17162.62014663  .00000122  00000-0  24828-4 0  9995
2 39441  97.6269 193.0712 0081161 322.8764  36.6848 14.74615449190004
FUNCUBE-1 (AO-73)       
1 39444U 13066AE  17162.93897167  .00000256  00000-0  38421-4 0  9992
2 39444  97.6313 206.4833 0056943 284.2955  75.1939 14.81437960190246
UWE-3                   
1 39446U 13066AG  17162.79931806  .00000189  00000-0  32221-4 0  9994
2 39446  97.6281 199.6306 0069115 303.7497  55.7142 14.77980123190400
BRITE-TORONTO           
1 40020U 14033L   17162.71370106  .00000044  00000-0  16162-4 0  9997
2 40020  97.8368  33.7392 0087309 345.4015  14.4669 14.66390211159283
DUCHIFAT-1              
1 40021U 14033M   17162.72419723  .00000342  00000-0  41547-4 0  9994
2 40021  97.9192  75.8818 0012310 325.4692  34.5724 14.89881945161786
FLOCK 1C-10             
1 40023U 14033P   17162.81962021  .00000621  00000-0  72474-4 0  9993
2 40023  97.9212  75.0588 0012533 331.9211  28.1280 14.88700208161702
NANOSATC-BR1            
1 40024U 14033Q   17162.72380248  .00000288  00000-0  36465-4 0  9998
2 40024  97.9152  74.7777 0011597 326.9082  33.1408 14.89208327161738
QB50P1                  
1 40025U 14033R   17162.70039475  .00000271  00000-0  35309-4 0  9998
2 40025  97.9134  73.8043 0011876 329.7778  30.2753 14.88413708161166
FLOCK 1C-7              
1 40026U 14033S   17162.70472447  .00000292  00000-0  36733-4 0  9994
2 40026  97.9249  75.6583 0011331 329.0739  30.9814 14.89432274161737
FLOCK 1C-1              
1 40027U 14033T   17162.78783285  .00000606  00000-0  70772-4 0  9998
2 40027  97.9233  75.2525 0012781 328.9365  31.1100 14.88762237161719
POPSAT-HIP-1            
1 40028U 14033U   17162.73145878  .00000434  00000-0  53036-4 0  9997
2 40028  97.9177  74.1070 0013568 328.0765  31.9645 14.88285583161669
FLOCK 1C-2              
1 40029U 14033V   17162.74951420  .00000715  00000-0  82424-4 0  9992
2 40029  97.9235  75.0727 0013815 325.1774  34.8539 14.88781134161697
FLOCK 1C-4              
1 40031U 14033X   17162.69808677  .00000308  00000-0  39054-4 0  9993
2 40031  97.9228  75.0068 0014085 323.0149  37.0101 14.88626803161672
QB50P2                  
1 40032U 14033Y   17162.74620364  .00000248  00000-0  33144-4 0  9992
2 40032  97.9107  72.9756 0011132 324.5550  35.4925 14.87972191161636
FLOCK 1C-11             
1 40033U 14033Z   17162.82953868  .00000097  00000-0  15938-4 0  9993
2 40033  97.9253  76.5142 0011523 315.4692  44.5592 14.90157560161795
ANTELSAT                
1 40034U 14033AA  17162.64816184  .00000193  00000-0  36607-4 0  9996
2 40034  97.8601  46.7518 0058048 311.8915  47.7349 14.73693845159579
FLOCK 1C-9              
1 40035U 14033AB  17162.80567977  .00000785  00000-0  89774-4 0  9998
2 40035  97.9266  75.4863 0011415 318.2039  41.8283 14.88835261161712
FLOCK 1C-6              
1 40036U 14033AC  17162.69263973  .00000541  00000-0  63556-4 0  9995
2 40036  97.9267  75.5790 0011673 319.6089  40.4261 14.88937947161704
PERSEUS-M2              
1 40037U 14033AD  17162.80798053  .00000099  00000-0  17535-4 0  9995
2 40037  97.9129  71.6043 0013696 328.5828  31.4568 14.86223819161510
FLOCK 1C-5              
1 40038U 14033AE  17162.69986390  .00000334  00000-0  41570-4 0  9994
2 40038  97.9256  75.3993 0013695 318.2031  41.8162 14.88928547161694
PERSEUS-M1              
1 40039U 14033AF  17162.80638480  .00000095  00000-0  17198-4 0  9995
2 40039  97.9135  71.1687 0013463 324.3296  35.7018 14.85848015160968
FLOCK 1C-8              
1 40040U 14033AG  17162.69775316  .00000326  00000-0  38979-4 0  9991
2 40040  97.9284  77.4643 0012217 306.2262  53.7813 14.90865805161814
